[{"OBJECT_NAME":"STARLINK-34340","OBJECT_ID":"2025-112T","EPOCH":"2026-03-09T17:46:52.226400","MEAN_MOTION":15.05647906,"ECCENTRICITY":8.495e-5,"INCLINATION":97.6025,"RA_OF_ASC_NODE":121.5373,"ARG_OF_PERICENTER":142.7286,"MEAN_ANOMALY":217.4,"EPHEMERIS_TYPE":0,"CLASSIFICATION_TYPE":"U","NORAD_CAT_ID":64163,"ELEMENT_SET_NO":999,"REV_AT_EPOCH":4331,"BSTAR":6.4740904e-5,"MEAN_MOTION_DOT":8.73e-6,"MEAN_MOTION_DDOT":0},{"OBJECT_NAME":"PSLV DEB","OBJECT_ID":"2001-049NA","EPOCH":"2026-03-08T15:04:56.759808","MEAN_MOTION":15.08740413,"ECCENTRICITY":0.00254054,"INCLINATION":98.314,"RA_OF_ASC_NODE":131.3874,"ARG_OF_PERICENTER":357.4644,"MEAN_ANOMALY":2.6449,"EPHEMERIS_TYPE":0,"CLASSIFICATION_TYPE":"U","NORAD_CAT_ID":27582,"ELEMENT_SET_NO":999,"REV_AT_EPOCH":27774,"BSTAR":0.00086862236,"MEAN_MOTION_DOT":0.0001368,"MEAN_MOTION_DDOT":0}]
